GLOBALSTAR M001         
1 25162U 98008A   24222.83278545 -.00000020  00000+0  58443-3 0  9994
2 25162  52.0021 159.4326 0001800 327.7170  49.3807 12.38190373205144
GLOBALSTAR M004         
1 25163U 98008B   24222.62509399 -.00000091  00000+0  74690-4 0  9997
2 25163  51.9998 284.6377 0002571 319.7833 204.4357 12.63367304222406
GLOBALSTAR M002         
1 25164U 98008C   24222.72284322 -.00000101  00000+0 -48455-3 0  9997
2 25164  52.0028 301.1492 0000907 286.7325  73.3395 11.61502247147872
GLOBALSTAR M003         
1 25165U 98008D   24222.75225289  .00000056  00000+0  15565-2 0  9990
2 25165  51.9929 311.0666 0007887  31.3480 138.3223 12.12025955195456
GLOBALSTAR M014         
1 25306U 98023A   24222.95961337 -.00000066  00000+0  20950-3 0  9994
2 25306  51.9803 230.3211 0000852 155.3622 218.2042 11.65469949154884
GLOBALSTAR M006         
1 25307U 98023B   24222.85127819 -.00000048  00000+0  56649-3 0  9997
2 25307  51.9924 271.4349 0003721 259.1006 272.5581 11.58164299180752
GLOBALSTAR M015         
1 25308U 98023C   24222.84353689 -.00000039  00000+0  77957-3 0  9998
2 25308  51.9857 355.6519 0012114 240.0577 236.4997 11.48848652158295
GLOBALSTAR M008         
1 25309U 98023D   24222.93194413 -.00000084  00000+0  92781-4 0  9990
2 25309  51.9990  20.4475 0001897 225.9662 304.1675 12.36046354199350
